MEAN_MOTION;ECCENTRICITY;INCLINATION;RA_OF_ASC_NODE;ARG_OF_PERICENTER;MEAN_ANOMALY;BSTAR;MEAN_MOTION_DOT;MEAN_MOTION_DDOT;TYPE
0.98851768;0.0004395;14.594;345.8915;317.2877;338.9375;0;-1.17E-6;0;Intelsat
0.98851495;0.0004361;14.5932;345.8823;317.5163;304.2494;0;-9.8E-7;0;Intelsat
0.98851368;0.0004323;14.5925;345.8746;317.9188;221.2675;0;-8.3E-7;0;Intelsat
0.98850951;0.000424;14.5908;345.8547;318.7923;215.0439;0;-4.5E-7;0;Intelsat
0.98850817;0.0004209;14.5899;345.8447;319.1978;211.9278;0;-2.8E-7;0;Intelsat
0.98850694;0.0004182;14.5889;345.8344;319.6922;226.0257;0;-1.2E-7;0;Intelsat
0.98850801;0.0004119;14.587;345.8133;320.9944;268.0053;0;1.1E-7;0;Intelsat
0.98850929;0.000409;14.5862;345.8045;321.5342;224.2873;0;1.6E-7;0;Intelsat
0.98851133;0.0004055;14.5851;345.7932;322.3967;269.6082;0;1.8E-7;0;Intelsat
0.98851133;0.0004055;14.5851;345.7932;322.3967;269.6082;0;1.8E-7;0;Intelsat
0.98851374;0.000404;14.5841;345.783;322.9565;280.6021;0;1.5E-7;0;Intelsat
0.98851633;0.0004003;14.5833;345.7745;323.5521;226.94;0;9.0E-8;0;Intelsat
0.98852049;0.0003936;14.5821;345.7625;324.6291;302.125;0;-6.0E-8;0;Intelsat
0.98852339;0.0003899;14.5814;345.755;325.1808;214.2759;0;-1.8E-7;0;Intelsat
0.98852789;0.0003862;14.5804;345.7448;325.8959;221.4777;0;-3.8E-7;0;Intelsat
0.9885322;0.0003799;14.5795;345.7348;326.7324;225.7144;0;-6.0E-7;0;Intelsat
0.9885322;0.0003799;14.5795;345.7348;326.7324;225.7144;0;-6.0E-7;0;Intelsat
0.98853689;0.0003742;14.5784;345.7235;327.4674;277.5804;0;-8.9E-7;0;Intelsat
0.98854034;0.0003693;14.5776;345.7155;328.1252;208.7447;0;-1.11E-6;0;Intelsat
0.98854433;0.0003621;14.5767;345.7055;328.8809;212.3679;0;-1.39E-6;0;Intelsat
0.9885451;0.0003598;14.5764;345.7034;329.1128;287.5375;0;-1.45E-6;0;Intelsat
0.98854779;0.0003551;14.5756;345.6955;329.6763;219.571;0;-1.67E-6;0;Intelsat
0.98855286;0.0003436;14.5739;345.6774;330.702;155.9633;0;-2.14E-6;0;Intelsat
0.98855484;0.0003351;14.5728;345.6663;331.3165;202.4002;0;-2.4E-6;0;Intelsat
0.98855548;0.0003259;14.5719;345.6564;332.0325;199.0178;0;-2.58E-6;0;Intelsat
0.98855542;0.000319;14.5709;345.6458;332.3972;221.4397;0;-2.74E-6;0;Intelsat
0.98855436;0.0003109;14.57;345.6359;332.9368;218.2366;0;-2.84E-6;0;Intelsat
0.98855245;0.0003049;14.569;345.626;333.2223;215.2652;0;-2.89E-6;0;Intelsat
0.98854987;0.0003002;14.5681;345.6161;333.4901;212.3277;0;-2.88E-6;0;Intelsat
0.98854637;0.0002953;14.5672;345.6063;333.7196;209.4188;0;-2.82E-6;0;Intelsat
0.98854254;0.0002911;14.5663;345.5964;333.9349;206.5294;0;-2.7E-6;0;Intelsat
0.98853795;0.0002873;14.5654;345.5866;334.1898;203.5229;0;-2.52E-6;0;Intelsat
0.98853288;0.0002833;14.5645;345.5768;334.4528;200.6449;0;-2.3E-6;0;Intelsat
0.9885225;0.0002739;14.5626;345.5573;335.4832;194.2525;0;-1.73E-6;0;Intelsat
0.98851737;0.0002701;14.5616;345.5471;336.128;208.2666;0;-1.41E-6;0;Intelsat
0.98851324;0.000269;14.5607;345.5371;336.7434;210.7336;0;-1.08E-6;0;Intelsat
0.98850885;0.0002657;14.5597;345.5273;337.3992;209.7311;0;-7.7E-7;0;Intelsat
0.98850524;0.0002645;14.5588;345.5176;338.1288;204.0628;0;-4.8E-7;0;Intelsat
0.9885035;0.0002621;14.5579;345.5089;338.8399;159.2493;0;-2.5E-7;0;Intelsat
0.98850319;0.0002629;14.5578;345.5076;339.013;202.7456;0;-2.2E-7;0;Intelsat
0.98850184;0.0002586;14.5569;345.4978;339.9487;199.0953;0;1.0E-8;0;Intelsat
0.98850076;0.0002553;14.5558;345.4874;340.8656;220.6955;0;1.9E-7;0;Intelsat
0.98850132;0.0002503;14.555;345.4783;341.936;191.7244;0;3.1E-7;0;Intelsat
0.98850275;0.0002433;14.5538;345.4665;343.1936;261.6907;0;3.8E-7;0;Intelsat
0.98850451;0.0002388;14.553;345.4589;344.0496;184.2177;0;3.9E-7;0;Intelsat
0.98850797;0.0002325;14.5519;345.4485;345.1915;205.8126;0;3.4E-7;0;Intelsat
0.9885118;0.0002263;14.5509;345.4387;346.242;202.063;0;2.5E-7;0;Intelsat
0.98851309;0.0002232;14.5504;345.4342;346.6558;13.5846;0;1.8E-7;0;Intelsat
0.98851551;0.0002194;14.5499;345.4291;347.4706;198.1413;0;1.0E-7;0;Intelsat
0.98852261;0.0002094;14.5485;345.4146;348.4842;13.0927;0;-1.9E-7;0;Intelsat
0.98852503;0.0002056;14.548;345.4097;349.2404;190.9829;0;-3.0E-7;0;Intelsat
0.98852953;0.000198;14.547;345.4;350.0922;187.4531;0;-5.5E-7;0;Intelsat
0.9885317;0.0001944;14.5465;345.3951;350.163;6.0263;0;-6.9E-7;0;Intelsat
0.98853415;0.0001908;14.546;345.3902;350.8589;183.9949;0;-8.2E-7;0;Intelsat
0.98854026;0.0001811;14.5445;345.3755;351.3685;359.4678;0;-1.24E-6;0;Intelsat
0.9885416;0.0001785;14.5441;345.3709;351.6835;166.3585;0;-1.37E-6;0;Intelsat
0.9885455;0.0001731;14.5429;345.36;352.0002;200.2924;0;-1.67E-6;0;Intelsat
0.98854792;0.0001673;14.542;345.3502;352.1745;197.4249;0;-1.92E-6;0;Intelsat
0.98854792;0.0001673;14.542;345.3502;352.1745;197.4249;0;-1.92E-6;0;Intelsat
0.98854884;0.0001641;14.5415;345.3453;352.1972;16.0434;0;-2.04E-6;0;Intelsat
0.98854956;0.0001616;14.541;345.3404;352.3018;194.6061;0;-2.15E-6;0;Intelsat
0.98855006;0.0001581;14.5406;345.3355;352.3673;13.2259;0;-2.25E-6;0;Intelsat
0.98855047;0.0001489;14.5386;345.316;352.6142;7.618;0;-2.54E-6;0;Intelsat
0.98855006;0.0001474;14.5382;345.3111;352.5389;186.3564;0;-2.58E-6;0;Intelsat
0.98854882;0.0001447;14.5372;345.3014;352.6498;183.5582;0;-2.63E-6;0;Intelsat
0.98854809;0.000143;14.5367;345.2965;352.9523;1.9258;0;-2.64E-6;0;Intelsat
0.98854467;0.0001379;14.5352;345.2819;353.2331;177.6096;0;-2.59E-6;0;Intelsat
0.98854295;0.0001363;14.5347;345.2769;353.9024;0.9278;0;-2.56E-6;0;Intelsat
0.98854011;0.0001334;14.5336;345.2667;354.5301;17.7565;0;-2.44E-6;0;Intelsat
0.98853643;0.0001306;14.5326;345.2573;355.3416;359.6776;0;-2.31E-6;0;Intelsat
0.9885325;0.0001274;14.5316;345.2472;356.2672;10.6603;0;-2.13E-6;0;Intelsat
0.9885289;0.0001234;14.5306;345.2377;357.484;357.0576;0;-1.93E-6;0;Intelsat
0.98852507;0.0001188;14.5296;345.2279;358.8528;357.5659;0;-1.71E-6;0;Intelsat
0.98852157;0.0001168;14.5285;345.2179;0.0935;358.7609;0;-1.48E-6;0;Intelsat
0.98851812;0.000114;14.5274;345.2082;1.5804;354.6072;0;-1.23E-6;0;Intelsat
0.98851545;0.0001102;14.5265;345.1993;2.9646;317.6271;0;-1.01E-6;0;Intelsat
0.98851313;0.0001068;14.5257;345.1913;4.4065;249.1514;0;-8.1E-7;0;Intelsat
0.98851224;0.0001051;14.5254;345.1885;4.8852;352.9292;0;-7.4E-7;0;Intelsat
0.98851144;0.0001032;14.5249;345.1838;6.103;163.3356;0;-6.3E-7;0;Intelsat
0.98850905;9.7E-5;14.5236;345.1716;8.4624;244.7516;0;-3.5E-7;0;Intelsat
0.98850841;9.52E-5;14.5233;345.1684;8.8447;1.9882;0;-2.8E-7;0;Intelsat
0.98850811;9.29E-5;14.5228;345.1637;10.4111;172.5873;0;-1.9E-7;0;Intelsat
0.98850738;8.61E-5;14.5215;345.1511;12.6923;269.8872;0;3.0E-8;0;Intelsat
0.98850704;8.49E-5;14.5212;345.1488;12.848;353.7879;0;7.0E-8;0;Intelsat
0.9885071;7.87E-5;14.5202;345.139;15.1375;345.5777;0;1.9E-7;0;Intelsat
0.98850758;7.24E-5;14.5192;345.1292;17.5415;338.4256;0;2.7E-7;0;Intelsat
0.98850928;6.6E-5;14.5182;345.1192;20.1089;337.2462;0;3.1E-7;0;Intelsat
0.98851115;5.91E-5;14.5171;345.1091;23.1813;340.627;0;3.0E-7;0;Intelsat
0.9885137;5.29E-5;14.5161;345.099;26.0205;338.7829;0;2.4E-7;0;Intelsat
0.98851516;5.04E-5;14.5156;345.0944;27.741;142.8902;0;1.9E-7;0;Intelsat
0.98851698;4.62E-5;14.5152;345.0891;29.3814;334.5161;0;1.3E-7;0;Intelsat
0.98852041;4.0E-5;14.5141;345.0789;32.6267;339.4224;0;-3.0E-8;0;Intelsat
0.98852223;3.75E-5;14.5136;345.0739;33.954;156.7625;0;-1.2E-7;0;Intelsat
0.98852414;3.47E-5;14.5132;345.0694;35.3709;319.194;0;-2.2E-7;0;Intelsat
0.98852777;2.9E-5;14.5123;345.0597;39.8885;306.2106;0;-4.4E-7;0;Intelsat
0.98853203;2.49E-5;14.5112;345.0492;42.7924;321.1788;0;-7.0E-7;0;Intelsat
0.98853666;2.05E-5;14.5102;345.0394;48.8032;312.5042;0;-9.6E-7;0;Intelsat
0.98854049;1.78E-5;14.5092;345.0296;53.4034;305.2077;0;-1.24E-6;0;Intelsat
0.98854417;1.53E-5;14.5081;345.0198;60.5866;295.3433;0;-1.51E-6;0;Intelsat
0.98854749;1.31E-5;14.5071;345.0096;72.6601;295.4053;0;-1.79E-6;0;Intelsat
0.98855023;1.24E-5;14.5061;345.0001;78.8297;271.7575;0;-2.04E-6;0;Intelsat
0.98855253;1.2E-5;14.5049;344.9896;95.9709;277.3836;0;-2.29E-6;0;Intelsat
0.98855416;1.26E-5;14.5039;344.9797;105.954;264.7146;0;-2.49E-6;0;Intelsat
0.98855468;1.47E-5;14.5023;344.9649;126.1871;60.9665;0;-2.71E-6;0;Intelsat
0.98855466;1.66E-5;14.5018;344.9599;130.2615;235.0623;0;-2.77E-6;0;Intelsat
0.98855352;2.0E-5;14.5008;344.95;137.9086;224.7431;0;-2.83E-6;0;Intelsat
0.98855301;2.16E-5;14.5003;344.9451;141.3871;39.921;0;-2.84E-6;0;Intelsat
0.98855173;2.34E-5;14.4997;344.9401;142.8098;217.1681;0;-2.85E-6;0;Intelsat
0.98854925;2.72E-5;14.4987;344.9302;146.9361;210.3445;0;-2.8E-6;0;Intelsat
0.98854573;3.18E-5;14.4977;344.9204;151.1172;203.4335;0;-2.7E-6;0;Intelsat
0.98854189;3.73E-5;14.4966;344.9105;155.0632;196.871;0;-2.55E-6;0;Intelsat
0.98853767;4.24E-5;14.4956;344.9006;157.4361;191.8205;0;-2.35E-6;0;Intelsat
0.98853265;4.8E-5;14.4945;344.89;160.2379;211.7735;0;-2.1E-6;0;Intelsat
0.98852762;5.44E-5;14.4934;344.8802;162.6033;206.71;0;-1.83E-6;0;Intelsat
0.98852762;5.44E-5;14.4934;344.8802;162.6033;206.71;0;-1.82E-6;0;Intelsat
0.98852261;6.01E-5;14.4924;344.8703;164.7591;201.8662;0;-1.54E-6;0;Intelsat
0.98851822;6.52E-5;14.4915;344.8607;166.2504;187.8589;0;-1.25E-6;0;Intelsat
0.98851528;6.96E-5;14.4907;344.8537;167.2951;76.6503;0;-1.04E-6;0;Intelsat
0.98851385;7.11E-5;14.4904;344.8504;168.5889;192.6401;0;-9.5E-7;0;Intelsat
0.98851196;7.39E-5;14.4899;344.8454;169.2586;10.6252;0;-8.1E-7;0;Intelsat
0.98850677;8.19E-5;14.4884;344.8303;173.1947;182.6285;0;-4.2E-7;0;Intelsat
0.98850677;8.19E-5;14.4884;344.8303;173.1947;182.6285;0;-4.1E-7;0;Intelsat
0.98850538;8.4E-5;14.4879;344.8254;174.0712;0.4162;0;-3.0E-7;0;Intelsat
0.98850346;8.92E-5;14.4869;344.8153;176.5111;355.2937;0;-1.0E-7;0;Intelsat
0.9885027;9.29E-5;14.4864;344.8103;177.9295;172.5158;0;-1.0E-8;0;Intelsat
0.98850194;9.72E-5;14.4854;344.8002;180.0113;167.7398;0;1.2E-7;0;Intelsat
0.98850231;9.96E-5;14.4847;344.7936;181.3327;46.7085;0;1.9E-7;0;Intelsat
0.98850237;0.0001019;14.4843;344.7896;182.1356;188.3611;0;2.2E-7;0;Intelsat
0.98850427;0.0001081;14.4828;344.7747;185.485;0.9817;0;2.6E-7;0;Intelsat
0.98850524;0.0001095;14.4823;344.7697;185.9058;179.1944;0;2.6E-7;0;Intelsat
0.9885068;0.0001109;14.4817;344.7642;187.0858;18.2048;0;2.3E-7;0;Intelsat
